{"type": "FeatureCollection", "features": [ {"type": "Feature", "properties": {"norad_id": 65077, "name": "CREW DRAGON 11", "group": "stations", "lat": -26.95066364501212, "lon": 159.9718024813015, "alt_km": 423.5150213797797, "timestamp": "2025-12-04T09:47:36.321932+00:00", "meta": {"OBJECT_NAME": "CREW DRAGON 11", "OBJECT_ID": "2025-166A", "EPOCH": "2025-12-03T21:33:39.277728", "MEAN_MOTION": 15.4928465, "ECCENTRICITY": 0.00035922, "INCLINATION": 51.6303, "RA_OF_ASC_NODE": 186.2514, "ARG_OF_PERICENTER": 201.3576, "MEAN_ANOMALY": 158.7263, "EPHEMERIS_TYPE": 0, "CLASSIFICATION_TYPE": "U", "NORAD_CAT_ID": 65077, "ELEMENT_SET_NO": 999, "REV_AT_EPOCH": 214, "BSTAR": 0.00025253496, "MEAN_MOTION_DOT": 0.00013627, "MEAN_MOTION_DDOT": 0}, "tle": {"line1": "1 65077U 25166A   25337.89837127  .00013627  00000+0  25253-3 0  9998", "line2": "2 65077  51.6303 186.2514 0003592 201.3576 158.7263 15.49284650  2148"}}, "geometry": {"type": "Point", "coordinates": [159.9718024813015, -26.95066364501212]}}, {"type": "Feature", "properties": {"norad_id": 65304, "name": "DRAGON CRS-33", "group": "stations", "lat": -26.95066313592911, "lon": 159.97180303527512, "alt_km": 423.51502136953513, "timestamp": "2025-12-04T09:47:36.321943+00:00", "meta": {"OBJECT_NAME": "DRAGON CRS-33", "OBJECT_ID": "2025-186A", "EPOCH": "2025-12-03T21:33:39.277728", "MEAN_MOTION": 15.4928465, "ECCENTRICITY": 0.00035922, "INCLINATION": 51.6303, "RA_OF_ASC_NODE": 186.2514, "ARG_OF_PERICENTER": 201.3576, "MEAN_ANOMALY": 158.7263, "EPHEMERIS_TYPE": 0, "CLASSIFICATION_TYPE": "U", "NORAD_CAT_ID": 65304, "ELEMENT_SET_NO": 999, "REV_AT_EPOCH": 11, "BSTAR": 0.00025253496, "MEAN_MOTION_DOT": 0.00013627, "MEAN_MOTION_DDOT": 0}, "tle": {"line1": "1 65304U 25186A   25337.89837127  .00013627  00000+0  25253-3 0  9993", "line2": "2 65304  51.6303 186.2514 0003592 201.3576 158.7263 15.49284650   116"}}, "geometry": {"type": "Point", "coordinates": [159.97180303527512, -26.95066313592911]}}, {"type": "Feature", "properties": {"norad_id": 65586, "name": "PROGRESS-MS 32", "group": "stations", "lat": -26.95066267312681, "lon": 159.97180353888706, "alt_km": 423.51502136021827, "timestamp": "2025-12-04T09:47:36.321953+00:00", "meta": {"OBJECT_NAME": "PROGRESS-MS 32", "OBJECT_ID": "2025-204A", "EPOCH": "2025-12-03T21:33:39.277728", "MEAN_MOTION": 15.4928465, "ECCENTRICITY": 0.00035922, "INCLINATION": 51.6303, "RA_OF_ASC_NODE": 186.2514, "ARG_OF_PERICENTER": 201.3576, "MEAN_ANOMALY": 158.7263, "EPHEMERIS_TYPE": 0, "CLASSIFICATION_TYPE": "U", "NORAD_CAT_ID": 65586, "ELEMENT_SET_NO": 999, "REV_AT_EPOCH": 27, "BSTAR": 0.00025253496, "MEAN_MOTION_DOT": 0.00013627, "MEAN_MOTION_DDOT": 0}, "tle": {"line1": "1 65586U 25204A   25337.89837127  .00013627  00000+0  25253-3 0  9996", "line2": "2 65586  51.6303 186.2514 0003592 201.3576 158.7263 15.49284650   275"}}, "geometry": {"type": "Point", "coordinates": [159.97180353888706, -26.95066267312681]}}, {"type": "Feature", "properties": {"norad_id": 65616, "name": "CYGNUS NG-23", "group": "stations", "lat": -26.950662210324204, "lon": 159.9718040424993, "alt_km": 423.51502135090414, "timestamp": "2025-12-04T09:47:36.321963+00:00", "meta": {"OBJECT_NAME": "CYGNUS NG-23", "OBJECT_ID": "2025-208A", "EPOCH": "2025-12-03T21:33:39.277728", "MEAN_MOTION": 15.4928465, "ECCENTRICITY": 0.00035922, "INCLINATION": 51.6303, "RA_OF_ASC_NODE": 186.2514, "ARG_OF_PERICENTER": 201.3576, "MEAN_ANOMALY": 158.7263, "EPHEMERIS_TYPE": 0, "CLASSIFICATION_TYPE": "U", "NORAD_CAT_ID": 65616, "ELEMENT_SET_NO": 999, "REV_AT_EPOCH": 22, "BSTAR": 0.00025253496, "MEAN_MOTION_DOT": 0.00013627, "MEAN_MOTION_DDOT": 0}, "tle": {"line1": "1 65616U 25208A   25337.89837127  .00013627  00000+0  25253-3 0  9994", "line2": "2 65616  51.6303 186.2514 0003592 201.3576 158.7263 15.49284650   224"}}, "geometry": {"type": "Point", "coordinates": [159.9718040424993, -26.950662210324204]}}, {"type": "Feature", "properties": {"norad_id": 65729, "name": "DRAGONFLY", "group": "stations", "lat": 28.781589319396385, "lon": -155.8733253818643, "alt_km": 363.6733826707814, "timestamp": "2025-12-04T09:47:36.321973+00:00", "meta": {"OBJECT_NAME": "DRAGONFLY", "OBJECT_ID": "1998-067XH", "EPOCH": "2025-12-03T19:52:13.613376", "MEAN_MOTION": 15.68394911, "ECCENTRICITY": 0.00065361, "INCLINATION": 51.6246, "RA_OF_ASC_NODE": 181.2773, "ARG_OF_PERICENTER": 221.3225, "MEAN_ANOMALY": 138.7278, "EPHEMERIS_TYPE": 0, "CLASSIFICATION_TYPE": "U", "NORAD_CAT_ID": 65729, "ELEMENT_SET_NO": 999, "REV_AT_EPOCH": 1176, "BSTAR": 0.0014908733, "MEAN_MOTION_DOT": 0.00174585, "MEAN_MOTION_DDOT": 0}, "tle": {"line1": "1 65729U 98067XH  25337.82793534  .00174585  00000+0  14909-2 0  9994", "line2": "2 65729  51.6246 181.2773 0006536 221.3225 138.7278 15.68394911 11769"}}, "geometry": {"type": "Point", "coordinates": [-155.8733253818643, 28.781589319396385]}}, {"type": "Feature", "properties": {"norad_id": 65730, "name": "1998-067XJ", "group": "stations", "lat": -25.51923154005908, "lon": 149.33141543289986, "alt_km": 157.9618540779884, "timestamp": "2025-12-04T09:47:36.321984+00:00", "meta": {"OBJECT_NAME": "1998-067XJ", "OBJECT_ID": "1998-067XJ", "EPOCH": "2025-12-02T19:46:01.269984", "MEAN_MOTION": 16.23931094, "ECCENTRICITY": 0.00101147, "INCLINATION": 51.6061, "RA_OF_ASC_NODE": 180.4655, "ARG_OF_PERICENTER": 256.3912, "MEAN_ANOMALY": 103.5981, "EPHEMERIS_TYPE": 0, "CLASSIFICATION_TYPE": "U", "NORAD_CAT_ID": 65730, "ELEMENT_SET_NO": 999, "REV_AT_EPOCH": 1168, "BSTAR": 0.002285911, "MEAN_MOTION_DOT": 0.06330363, "MEAN_MOTION_DDOT": 1.1931217e-05}, "tle": {"line1": "1 65730U 98067XJ  25336.82362581  .06330363  11931-4  22859-2 0  9996", "line2": "2 65730  51.6061 180.4655 0010114 256.3912 103.5981 16.23931094 11687"}}, "geometry": {"type": "Point", "coordinates": [149.33141543289986, -25.51923154005908]}}, {"type": "Feature", "properties": {"norad_id": 65731, "name": "1998-067XK", "group": "stations", "lat": -35.32800280177091, "lon": 33.604772868944444, "alt_km": 377.4772999796505, "timestamp": "2025-12-04T09:47:36.321994+00:00", "meta": {"OBJECT_NAME": "1998-067XK", "OBJECT_ID": "1998-067XK", "EPOCH": "2025-12-03T20:33:14.862528", "MEAN_MOTION": 15.63596152, "ECCENTRICITY": 0.00059045, "INCLINATION": 51.628, "RA_OF_ASC_NODE": 182.229, "ARG_OF_PERICENTER": 193.4783, "MEAN_ANOMALY": 166.6055, "EPHEMERIS_TYPE": 0, "CLASSIFICATION_TYPE": "U", "NORAD_CAT_ID": 65731, "ELEMENT_SET_NO": 999, "REV_AT_EPOCH": 1175, "BSTAR": 0.0013142835, "MEAN_MOTION_DOT": 0.00126041, "MEAN_MOTION_DDOT": 0}, "tle": {"line1": "1 65731U 98067XK  25337.85642202  .00126041  00000+0  13143-2 0  9998", "line2": "2 65731  51.6280 182.2290 0005904 193.4783 166.6055 15.63596152 11759"}}, "geometry": {"type": "Point", "coordinates": [33.604772868944444, -35.32800280177091]}}, {"type": "Feature", "properties": {"norad_id": 65732, "name": "RSP-03", "group": "stations", "lat": 41.501277688037746, "lon": -45.616404168371645, "alt_km": 363.66451877872805, "timestamp": "2025-12-04T09:47:36.322004+00:00", "meta": {"OBJECT_NAME": "RSP-03", "OBJECT_ID": "1998-067XL", "EPOCH": "2025-12-03T19:29:20.077152", "MEAN_MOTION": 15.65846049, "ECCENTRICITY": 0.00066871, "INCLINATION": 51.6261, "RA_OF_ASC_NODE": 181.9259, "ARG_OF_PERICENTER": 196.3432, "MEAN_ANOMALY": 163.7349, "EPHEMERIS_TYPE": 0, "CLASSIFICATION_TYPE": "U", "NORAD_CAT_ID": 65732, "ELEMENT_SET_NO": 999, "REV_AT_EPOCH": 1176, "BSTAR": 0.0012908506, "MEAN_MOTION_DOT": 0.00135578, "MEAN_MOTION_DDOT": 0}, "tle": {"line1": "1 65732U 98067XL  25337.81203793  .00135578  00000+0  12909-2 0  9997", "line2": "2 65732  51.6261 181.9259 0006687 196.3432 163.7349 15.65846049 11762"}}, "geometry": {"type": "Point", "coordinates": [-45.616404168371645, 41.501277688037746]}}, {"type": "Feature", "properties": {"norad_id": 65733, "name": "GHS-01", "group": "stations", "lat": -41.21982209932026, "lon": 41.8728786838689, "alt_km": 356.52886034762923, "timestamp": "2025-12-04T09:47:36.322029+00:00", "meta": {"OBJECT_NAME": "GHS-01", "OBJECT_ID": "1998-067XM", "EPOCH": "2025-12-03T22:05:54.332736", "MEAN_MOTION": 15.70494881, "ECCENTRICITY": 0.0007009, "INCLINATION": 51.6271, "RA_OF_ASC_NODE": 180.4028, "ARG_OF_PERICENTER": 220.9221, "MEAN_ANOMALY": 139.1251, "EPHEMERIS_TYPE": 0, "CLASSIFICATION_TYPE": "U", "NORAD_CAT_ID": 65733, "ELEMENT_SET_NO": 999, "REV_AT_EPOCH": 1179, "BSTAR": 0.001848703, "MEAN_MOTION_DOT": 0.00238165, "MEAN_MOTION_DDOT": 0}, "tle": {"line1": "1 65733U 98067XM  25337.92076774  .00238165  00000+0  18487-2 0  9990", "line2": "2 65733  51.6271 180.4028 0007009 220.9221 139.1251 15.70494881 11792"}}, "geometry": {"type": "Point", "coordinates": [41.8728786838689, -41.21982209932026]}}, {"type": "Feature", "properties": {"norad_id": 65941, "name": "YOTSUBA-KULOVER", "group": "stations", "lat": 8.889348893281003, "lon": -5.311794617375185, "alt_km": 391.6085022873658, "timestamp": "2025-12-04T09:47:36.322041+00:00", "meta": {"OBJECT_NAME": "YOTSUBA-KULOVER", "OBJECT_ID": "1998-067XN", "EPOCH": "2025-12-03T13:03:34.819200", "MEAN_MOTION": 15.57842234, "ECCENTRICITY": 0.00020894, "INCLINATION": 51.628, "RA_OF_ASC_NODE": 186.1413, "ARG_OF_PERICENTER": 172.2888, "MEAN_ANOMALY": 187.8136, "EPHEMERIS_TYPE": 0, "CLASSIFICATION_TYPE": "U", "NORAD_CAT_ID": 65941, "ELEMENT_SET_NO": 999, "REV_AT_EPOCH": 842, "BSTAR": 0.001074186, "MEAN_MOTION_DOT": 0.0008193, "MEAN_MOTION_DDOT": 0}, "tle": {"line1": "1 65941U 98067XN  25337.54415300  .00081930  00000+0  10742-2 0  9993", "line2": "2 65941  51.6280 186.1413 0002089 172.2888 187.8136 15.57842234  8427"}}, "geometry": {"type": "Point", "coordinates": [-5.311794617375185, 8.889348893281003]}}]}